{
  "type": "FeatureCollection",
  "features": [
    {
      "type": "Feature",
      "properties": {
        "norad_id": 32150,
        "name": "FENGYUN 1C DEB",
        "group": "fengyun-1c-debris",
        "lat": 71.76259220350349,
        "lon": -125.37681526897866,
        "alt_km": 662.258977557789,
        "timestamp": "2025-12-26T19:22:39.192420+00:00",
        "meta_object_name": "FENGYUN 1C DEB",
        "meta_object_id": "1999-025CSU",
        "meta_epoch": "2025-12-25T21:32:09.470112",
        "meta_mean_motion": 14.60695346,
        "meta_eccentricity": 0.0171392,
        "meta_inclination": 99.1909,
        "meta_ra_of_asc_node": 24.1832,
        "meta_arg_of_pericenter": 27.8988,
        "meta_mean_anomaly": 333.1271,
        "meta_ephemeris_type": 0,
        "meta_classification_type": "U",
        "meta_norad_cat_id": 32150,
        "meta_element_set_no": 999,
        "meta_rev_at_epoch": 97898,
        "meta_bstar": 0.00016863,
        "meta_mean_motion_dot": 9.42e-06,
        "meta_mean_motion_ddot": 0,
        "tle_line1": "1 32150U 99025CSU 25359.89733183  .00000942  00000+0  16863-3 0  9993",
        "tle_line2": "2 32150  99.1909  24.1832 0171392  27.8988 333.1271 14.60695346978980"
      },
      "geometry": {
        "type": "Point",
        "coordinates": [
          -125.37681526897866,
          71.76259220350349
        ]
      }
    },
    {
      "type": "Feature",
      "properties": {
        "norad_id": 32152,
        "name": "FENGYUN 1C DEB",
        "group": "fengyun-1c-debris",
        "lat": 78.70004362124642,
        "lon": 33.17306469723394,
        "alt_km": 677.056858775315,
        "timestamp": "2025-12-26T19:22:39.192432+00:00",
        "meta_object_name": "FENGYUN 1C DEB",
        "meta_object_id": "1999-025CSW",
        "meta_epoch": "2025-12-21T05:25:01.444224",
        "meta_mean_motion": 14.56838784,
        "meta_eccentricity": 0.00551981,
        "meta_inclination": 98.7603,
        "meta_ra_of_asc_node": 156.8014,
        "meta_arg_of_pericenter": 175.7831,
        "meta_mean_anomaly": 184.3842,
        "meta_ephemeris_type": 0,
        "meta_classification_type": "U",
        "meta_norad_cat_id": 32152,
        "meta_element_set_no": 999,
        "meta_rev_at_epoch": 62736,
        "meta_bstar": 0.0014652442,
        "meta_mean_motion_dot": 6.654e-05,
        "meta_mean_motion_ddot": 0,
        "tle_line1": "1 32152U 99025CSW 25355.22571116  .00006654  00000+0  14652-2 0  9993",
        "tle_line2": "2 32152  98.7603 156.8014 0055198 175.7831 184.3842 14.56838784627361"
      },
      "geometry": {
        "type": "Point",
        "coordinates": [
          33.17306469723394,
          78.70004362124642
        ]
      }
    },
    {
      "type": "Feature",
      "properties": {
        "norad_id": 32153,
        "name": "FENGYUN 1C DEB",
        "group": "fengyun-1c-debris",
        "lat": 17.414986976341044,
        "lon": -158.48184143387792,
        "alt_km": 869.435820750562,
        "timestamp": "2025-12-26T19:22:39.192442+00:00",
        "meta_object_name": "FENGYUN 1C DEB",
        "meta_object_id": "1999-025CSX",
        "meta_epoch": "2025-12-26T07:41:23.858592",
        "meta_mean_motion": 14.48759379,
        "meta_eccentricity": 0.0207722,
        "meta_inclination": 98.7689,
        "meta_ra_of_asc_node": 203.7873,
        "meta_arg_of_pericenter": 180.2083,
        "meta_mean_anomaly": 179.9057,
        "meta_ephemeris_type": 0,
        "meta_classification_type": "U",
        "meta_norad_cat_id": 32153,
        "meta_element_set_no": 999,
        "meta_rev_at_epoch": 97420,
        "meta_bstar": 0.00029227622,
        "meta_mean_motion_dot": 1.391e-05,
        "meta_mean_motion_ddot": 0,
        "tle_line1": "1 32153U 99025CSX 25360.32041503  .00001391  00000+0  29228-3 0  9992",
        "tle_line2": "2 32153  98.7689 203.7873 0207722 180.2083 179.9057 14.48759379974202"
      },
      "geometry": {
        "type": "Point",
        "coordinates": [
          -158.48184143387792,
          17.414986976341044
        ]
      }
    },
    {
      "type": "Feature",
      "properties": {
        "norad_id": 32155,
        "name": "FENGYUN 1C DEB",
        "group": "fengyun-1c-debris",
        "lat": -74.17078420552542,
        "lon": -35.32074656844634,
        "alt_km": 784.1455374788902,
        "timestamp": "2025-12-26T19:22:39.192453+00:00",
        "meta_object_name": "FENGYUN 1C DEB",
        "meta_object_id": "1999-025CSZ",
        "meta_epoch": "2025-12-22T15:11:27.193632",
        "meta_mean_motion": 14.32975023,
        "meta_eccentricity": 0.00693114,
        "meta_inclination": 98.9542,
        "meta_ra_of_asc_node": 286.5796,
        "meta_arg_of_pericenter": 210.5989,
        "meta_mean_anomaly": 149.1143,
        "meta_ephemeris_type": 0,
        "meta_classification_type": "U",
        "meta_norad_cat_id": 32155,
        "meta_element_set_no": 999,
        "meta_rev_at_epoch": 70364,
        "meta_bstar": 0.00042072892,
        "meta_mean_motion_dot": 1.135e-05,
        "meta_mean_motion_ddot": 0,
        "tle_line1": "1 32155U 99025CSZ 25356.63295363  .00001135  00000+0  42073-3 0  9997",
        "tle_line2": "2 32155  98.9542 286.5796 0069311 210.5989 149.1143 14.32975023703641"
      },
      "geometry": {
        "type": "Point",
        "coordinates": [
          -35.32074656844634,
          -74.17078420552542
        ]
      }
    },
    {
      "type": "Feature",
      "properties": {
        "norad_id": 32156,
        "name": "FENGYUN 1C DEB",
        "group": "fengyun-1c-debris",
        "lat": -57.717054848327976,
        "lon": -23.654117482100432,
        "alt_km": 835.800468551508,
        "timestamp": "2025-12-26T19:22:39.192463+00:00",
        "meta_object_name": "FENGYUN 1C DEB",
        "meta_object_id": "1999-025CTA",
        "meta_epoch": "2025-12-21T17:31:26.712192",
        "meta_mean_motion": 14.31964818,
        "meta_eccentricity": 0.00820417,
        "meta_inclination": 99.3545,
        "meta_ra_of_asc_node": 166.001,
        "meta_arg_of_pericenter": 31.7205,
        "meta_mean_anomaly": 328.8882,
        "meta_ephemeris_type": 0,
        "meta_classification_type": "U",
        "meta_norad_cat_id": 32156,
        "meta_element_set_no": 999,
        "meta_rev_at_epoch": 64949,
        "meta_bstar": 0.00022590764,
        "meta_mean_motion_dot": 5.78e-06,
        "meta_mean_motion_ddot": 0,
        "tle_line1": "1 32156U 99025CTA 25355.73017028  .00000578  00000+0  22591-3 0  9991",
        "tle_line2": "2 32156  99.3545 166.0010 0082041  31.7205 328.8882 14.31964818649497"
      },
      "geometry": {
        "type": "Point",
        "coordinates": [
          -23.654117482100432,
          -57.717054848327976
        ]
      }
    },
    {
      "type": "Feature",
      "properties": {
        "norad_id": 32160,
        "name": "FENGYUN 1C DEB",
        "group": "fengyun-1c-debris",
        "lat": -30.02058394725808,
        "lon": 163.62281796542078,
        "alt_km": 715.3331270710041,
        "timestamp": "2025-12-26T19:22:39.192473+00:00",
        "meta_object_name": "FENGYUN 1C DEB",
        "meta_object_id": "1999-025CTE",
        "meta_epoch": "2025-12-24T05:42:44.692992",
        "meta_mean_motion": 14.37597741,
        "meta_eccentricity": 0.00816512,
        "meta_inclination": 98.8815,
        "meta_ra_of_asc_node": 155.7856,
        "meta_arg_of_pericenter": 324.8235,
        "meta_mean_anomaly": 34.7576,
        "meta_ephemeris_type": 0,
        "meta_classification_type": "U",
        "meta_norad_cat_id": 32160,
        "meta_element_set_no": 999,
        "meta_rev_at_epoch": 96052,
        "meta_bstar": 0.00043465594,
        "meta_mean_motion_dot": 1.306e-05,
        "meta_mean_motion_ddot": 0,
        "tle_line1": "1 32160U 99025CTE 25358.23801728  .00001306  00000+0  43466-3 0  9996",
        "tle_line2": "2 32160  98.8815 155.7856 0081651 324.8235  34.7576 14.37597741960520"
      },
      "geometry": {
        "type": "Point",
        "coordinates": [
          163.62281796542078,
          -30.02058394725808
        ]
      }
    },
    {
      "type": "Feature",
      "properties": {
        "norad_id": 32161,
        "name": "FENGYUN 1C DEB",
        "group": "fengyun-1c-debris",
        "lat": 58.06244924952686,
        "lon": -60.55244942275816,
        "alt_km": 929.9828132822113,
        "timestamp": "2025-12-26T19:22:39.192483+00:00",
        "meta_object_name": "FENGYUN 1C DEB",
        "meta_object_id": "1999-025CTF",
        "meta_epoch": "2025-12-20T13:45:55.412928",
        "meta_mean_motion": 14.01882373,
        "meta_eccentricity": 0.0135471,
        "meta_inclination": 98.8321,
        "meta_ra_of_asc_node": 98.9655,
        "meta_arg_of_pericenter": 258.2246,
        "meta_mean_anomaly": 100.3696,
        "meta_ephemeris_type": 0,
        "meta_classification_type": "U",
        "meta_norad_cat_id": 32161,
        "meta_element_set_no": 999,
        "meta_rev_at_epoch": 63539,
        "meta_bstar": 0.00038333,
        "meta_mean_motion_dot": 5.88e-06,
        "meta_mean_motion_ddot": 0,
        "tle_line1": "1 32161U 99025CTF 25354.57355802  .00000588  00000+0  38333-3 0  9995",
        "tle_line2": "2 32161  98.8321  98.9655 0135471 258.2246 100.3696 14.01882373635396"
      },
      "geometry": {
        "type": "Point",
        "coordinates": [
          -60.55244942275816,
          58.06244924952686
        ]
      }
    }
  ]
}